NORAD_CAT_ID,OBJECT_NAME,OBJECT_TYPE,EPOCH,MEAN_MOTION,ECCENTRICITY,INCLINATION,RA_OF_ASC_NODE,ARG_OF_PERICENTER,MEAN_ANOMALY,BSTAR,MEAN_MOTION_DOT,MEAN_MOTION_DDOT,TLE_LINE0,TLE_LINE1,TLE_LINE2,SEMIMAJOR_AXIS,PERIOD,APOGEE,PERIGEE,DECAYED
53167.0,STARLINK-3683,PAYLOAD,2022-10-03 14:00:01,15.72198563,0.000676,53.2166,20.8394,276.5593,85.36200000000002,-0.0080253,-0.00981193,0.0,0 STARLINK-3683,1 53167U 22083AM  22276.58334491 -.00981193  00000-0 -80253-2 0  9996,2 53167  53.2166  20.8394 0006760 276.5593  85.3620 15.72198563  1304,6730.752,91.591,357.167,348.06699999999995,0.0
53167.0,STARLINK-3683,PAYLOAD,2022-10-03 22:00:00,15.71500024,0.0007126,53.2167,19.1936,272.64,176.5781,-0.0090337,-0.01063283,0.0,0 STARLINK-3683,1 53167U 22083AM  22276.91667824 -.01063283  00000-0 -90337-2 0  9998,2 53167  53.2167  19.1936 0007126 272.6400 176.5781 15.71500024  1308,6732.746,91.632,359.409,349.81300000000016,0.0
53167.0,STARLINK-3683,PAYLOAD,2022-10-04 14:00:01,15.69964524,0.0002529999999999,53.2176,15.9096,269.5502,351.5878,-0.0093777999999999,-0.0103462,0.0,0 STARLINK-3683,1 53167U 22083AM  22277.58334491 -.01034620  00000-0 -93778-2 0  9998,2 53167  53.2176  15.9096 0002530 269.5502 351.5878 15.69964524  1309,6737.135,91.722,360.705,357.296,0.0
53167.0,STARLINK-3683,PAYLOAD,2022-10-04 22:00:00,15.69250551,0.0001082,53.2167,14.2695,356.0449,349.6608,-0.01032,-0.01097074,0.0,0 STARLINK-3683,1 53167U 22083AM  22277.91667824 -.01097074  00000-0 -10320-1 0  9997,2 53167  53.2167  14.2695 0001082 356.0449 349.6608 15.69250551  1306,6739.179,91.764,361.773,360.315,0.0
53167.0,STARLINK-3683,PAYLOAD,2022-10-05 06:00:00,15.68455546,0.0001505,53.2175,12.6308,37.0712,32.3274,-0.010151,-0.01049523,0.0,0 STARLINK-3683,1 53167U 22083AM  22278.25001157 -.01049523  00000-0 -10151-1 0  9994,2 53167  53.2175  12.6308 0001505  37.0712  32.3274 15.68455546 13181,6741.456,91.81,364.335,362.306,0.0
53167.0,STARLINK-3683,PAYLOAD,2022-10-05 14:00:01,15.67697321,0.0001703,53.2173,10.9973,38.9185,113.3064,-0.010493,-0.01051333,0.0,0 STARLINK-3683,1 53167U 22083AM  22278.58335648 -.01051333  00000-0 -10493-1 0  9996,2 53167  53.2173  10.9973 0001703  38.9185 113.3064 15.67697321  1308,6743.629,91.854,366.643,364.346,0.0
53167.0,STARLINK-3683,PAYLOAD,2022-10-05 22:00:00,15.6693949,0.0001537,53.2173,9.3627,41.4312,192.5786,-0.01086,-0.01054394,0.0,0 STARLINK-3683,1 53167U 22083AM  22278.91667824 -.01054394  00000-0 -10860-1 0  9995,2 53167  53.2173   9.3627 0001537  41.4312 192.5786 15.66939490 13298,6745.804,91.899,368.705,366.632,0.0
53167.0,STARLINK-3683,PAYLOAD,2022-10-06 14:00:01,15.65420768,0.0001605,53.2176,6.1018,34.1709,0.7999,-0.011543,-0.01053776,0.0,0 STARLINK-3683,1 53167U 22083AM  22279.58334491 -.01053776  00000-0 -11543-1 0  9992,2 53167  53.2176   6.1018 0001605  34.1709   0.7999 15.65420768  1302,6750.166,91.988,373.114,370.948,0.0
53167.0,STARLINK-3683,PAYLOAD,2022-10-06 22:42:55,15.64593449,0.0001248,53.2175,4.3268,55.2649,226.72,-0.011935,-0.01053777,0.0,0 STARLINK-3683,1 53167U 22083AM  22279.94646991 -.01053777  00000-0 -11935-1 0  9999,2 53167  53.2175   4.3268 0001248  55.2649 226.7200 15.64593449 13458,6752.545,92.037,375.253,373.568,0.0
53167.0,STARLINK-3683,PAYLOAD,2022-10-07 14:00:01,15.63140395,0.0001363,53.2176,1.2229,53.9305,215.6388,-0.012592,-0.0106611,0.0,0 STARLINK-3683,1 53167U 22083AM  22280.58334491 -.01066110  00000-0 -12592-1 0  9995,2 53167  53.2176   1.2229 0001363  53.9305 215.6388 15.63140395  1306,6756.729,92.122,379.515,377.673,0.0
53167.0,STARLINK-3683,PAYLOAD,2022-10-07 22:00:00,15.62382364,0.0001395999999999,53.2171,359.5983,39.5091,306.4351,-0.013012,-0.01068988,0.0,0 STARLINK-3683,1 53167U 22083AM  22280.91667824 -.01068988  00000-0 -13012-1 0  9994,2 53167  53.2171 359.5983 0001396  39.5091 306.4351 15.62382364 13603,6758.915,92.167,381.723,379.836,0.0
53167.0,STARLINK-3683,PAYLOAD,2022-10-08 14:00:01,15.60862768,0.0001415,53.2173,356.3597,51.9994,83.9539,-0.01377,-0.01066378,0.0,0 STARLINK-3683,1 53167U 22083AM  22281.58334491 -.01066378  00000-0 -13770-1 0  9991,2 53167  53.2173 356.3597 0001415  51.9994  83.9539 15.60862768  1301,6763.301,92.257,386.12300000000016,384.209,0.0
53167.0,STARLINK-3683,PAYLOAD,2022-10-08 22:00:00,15.60102318,0.0001475,53.2174,354.7417,49.2872,160.3034,-0.014172,-0.01065785,0.0,0 STARLINK-3683,1 53167U 22083AM  22281.91667824 -.01065785  00000-0 -14172-1 0  9995,2 53167  53.2174 354.7417 0001475  49.2872 160.3034 15.60102318 13767,6765.498000000001,92.302,388.361,386.365,0.0
53167.0,STARLINK-3683,PAYLOAD,2022-10-09 14:00:01,15.58583506,0.0001663,53.2177,351.5146,31.9654,322.1578,-0.015013,-0.01065315,0.0,0 STARLINK-3683,1 53167U 22083AM  22282.58334491 -.01065315  00000-0 -15013-1 0  9994,2 53167  53.2177 351.5146 0001663  31.9654 322.1578 15.58583506  1306,6769.893,92.392,392.884,390.632,0.0
53167.0,STARLINK-3683,PAYLOAD,2022-10-09 22:00:00,15.57822319,0.00015,53.2176,349.9014,38.1392,26.8837,-0.015405,-0.01062238,0.0,0 STARLINK-3683,1 53167U 22083AM  22282.91667824 -.01062238  00000-0 -15405-1 0  9996,2 53167  53.2176 349.9014 0001500  38.1392  26.8837 15.57822319 13922,6772.098000000001,92.437,394.979,392.947,0.0
53167.0,STARLINK-3683,PAYLOAD,2022-10-10 14:00:01,15.5630104,0.0001651,53.2176,346.6854,43.9239,160.1566,-0.016233,-0.01057566,0.0,0 STARLINK-3683,1 53167U 22083AM  22283.58334491 -.01057566  00000-0 -16233-1 0  9999,2 53167  53.2176 346.6854 0001651  43.9239 160.1566 15.56301040  1301,6776.51,92.527,399.494,397.256,0.0
53167.0,STARLINK-3683,PAYLOAD,2022-10-10 22:00:01,15.55545937,0.0001582,53.2175,345.0775,38.5888,233.716,-0.016829,-0.01065179,0.0,0 STARLINK-3683,1 53167U 22083AM  22283.91668981 -.01065179  00000-0 -16829-1 0  9990,2 53167  53.2175 345.0775 0001582  38.5888 233.7160 15.55545937 14077,6778.703,92.572,401.641,399.496,0.0
53167.0,STARLINK-3683,PAYLOAD,2022-10-11 14:00:01,15.54023153,0.0001771,53.2175,341.8726,29.8717,15.9508,-0.017683,-0.01058669,0.0,0 STARLINK-3683,1 53167U 22083AM  22284.58334491 -.01058669  00000-0 -17683-1 0  9995,2 53167  53.2175 341.8726 0001771  29.8717  15.9508 15.54023153  1309,6783.130999999999,92.663,406.197,403.794,0.0
53167.0,STARLINK-3683,PAYLOAD,2022-10-11 22:00:00,15.53263751,0.0001768,53.2176,340.2701,32.8235,78.4219,-0.0181759999999999,-0.0105835,0.0,0 STARLINK-3683,1 53167U 22083AM  22284.91667824 -.01058350  00000-0 -18176-1 0  9996,2 53167  53.2176 340.2701 0001768  32.8235  78.4219 15.53263751  1303,6785.340999999999,92.708,408.406,406.007,0.0
53167.0,STARLINK-3683,PAYLOAD,2022-10-12 14:00:01,15.51742401,0.0001703,53.2176,337.0761,40.7938,198.5573,-0.019116,-0.01053672,0.0,0 STARLINK-3683,1 53167U 22083AM  22285.58334491 -.01053672  00000-0 -19116-1 0  9998,2 53167  53.2176 337.0761 0001703  40.7938 198.5573 15.51742401  1309,6789.776,92.799,412.797,410.484,0.0
53167.0,STARLINK-3683,PAYLOAD,2022-10-12 22:00:00,15.50947225,0.0001665,53.2176,335.4787,45.1811,256.8627,-0.018052,-0.00974131,0.0,0 STARLINK-3683,1 53167U 22083AM  22285.91667824 -.00974131  00000-0 -18052-1 0  9993,2 53167  53.2176 335.4787 0001665  45.1811 256.8627 15.50947225 14385,6792.096,92.846,415.092,412.83,0.0
53167.0,STARLINK-3683,PAYLOAD,2022-10-13 06:00:00,15.50159912,0.0001949,53.2178,333.885,39.4517,324.3621,-0.0069506,-0.00380124,0.0,0 STARLINK-3683,1 53167U 22083AM  22286.25001157 -.00380124  00000-0 -69506-2 0  9996,2 53167  53.2178 333.8850 0001949  39.4517 324.3621 15.50159912 14433,6794.396,92.894,417.585,414.937,0.0
53167.0,STARLINK-3683,PAYLOAD,2022-10-13 14:00:01,15.49921245,0.000217,53.2174,332.2936,31.2731,33.6051,-0.0016393,-0.00092526,0.0,0 STARLINK-3683,1 53167U 22083AM  22286.58334491 -.00092526  00000-0 -16393-2 0  9994,2 53167  53.2174 332.2936 0002170  31.2731  33.6051 15.49921245  1305,6795.093000000003,92.908,418.4330000000001,415.484,0.0
53167.0,STARLINK-3683,PAYLOAD,2022-10-13 20:00:01,15.49997125,0.0002076,53.2175,331.0977,30.5506,350.0743,-0.010745,-0.00570212,0.0,0 STARLINK-3683,1 53167U 22083AM  22286.83335648 -.00570212  00000-0 -10745-1 0  9994,2 53167  53.2175 331.0977 0002076  30.5506 350.0743 15.49997125 14527,6794.871,92.903,418.147,415.326,0.0
53167.0,STARLINK-3683,PAYLOAD,2022-10-13 22:00:00,15.49950225,0.0002121,53.2175,330.6994,33.8016,91.9927,-0.013276,-0.00692422,0.0,0 STARLINK-3683,1 53167U 22083AM  22286.91667824 -.00692422  00000-0 -13276-1 0  9997,2 53167  53.2175 330.6994 0002121  33.8016  91.9927 15.49950225  1301,6795.009,92.906,418.315,415.432,0.0
53167.0,STARLINK-3683,PAYLOAD,2022-10-14 06:00:00,15.49465379,0.0005922999999999,53.2176,329.1086,272.6129,273.8822,-0.020694,-0.01053054,0.0,0 STARLINK-3683,1 53167U 22083AM  22287.25001157 -.01053054  00000-0 -20694-1 0  9991,2 53167  53.2176 329.1086 0005923 272.6129 273.8822 15.49465379 14599,6796.426,92.935,422.316,414.265,0.0
53167.0,STARLINK-3683,PAYLOAD,2022-10-14 14:00:01,15.48703891,0.0006745,53.2173,327.5202,269.9678,336.4753,-0.0212289999999999,-0.01052032,0.0,0 STARLINK-3683,1 53167U 22083AM  22287.58334491 -.01052032  00000-0 -21229-1 0  9997,2 53167  53.2173 327.5202 0006745 269.9678 336.4753 15.48703891  1306,6798.654,92.981,425.104,415.9330000000001,0.0
53167.0,STARLINK-3683,PAYLOAD,2022-10-14 22:00:00,15.47947918,0.0001399,53.2174,325.9304,44.8471,260.6307,-0.021943,-0.01056236,0.0,0 STARLINK-3683,1 53167U 22083AM  22287.91667824 -.01056236  00000-0 -21943-1 0  9996,2 53167  53.2174 325.9304 0001399  44.8471 260.6307 15.47947918 14691,6800.8669999999975,93.026,423.6830000000001,421.781,0.0
53167.0,STARLINK-3683,PAYLOAD,2022-10-15 14:00:01,15.46428572,0.0001644,53.2172,322.762,34.8363,25.972,-0.023101,-0.01054712,0.0,0 STARLINK-3683,1 53167U 22083AM  22288.58334491 -.01054712  00000-0 -23101-1 0  9996,2 53167  53.2172 322.7620 0001644  34.8363  25.9720 15.46428572  1301,6805.321,93.118,428.305,426.067,0.0
